[{"OBJECT_NAME":"STARLINK-2738","OBJECT_ID":"2021-044AG","EPOCH":"2026-03-09T18:53:39.417792","MEAN_MOTION":15.30207829,"ECCENTRICITY":0.00013237,"INCLINATION":53.1579,"RA_OF_ASC_NODE":103.5158,"ARG_OF_PERICENTER":95.9871,"MEAN_ANOMALY":264.128,"EPHEMERIS_TYPE":0,"CLASSIFICATION_TYPE":"U","NORAD_CAT_ID":48668,"ELEMENT_SET_NO":999,"REV_AT_EPOCH":26398,"BSTAR":5.8239615e-5,"MEAN_MOTION_DOT":1.366e-5,"MEAN_MOTION_DDOT":0},{"OBJECT_NAME":"CP8 (IPEX)","OBJECT_ID":"2013-072K","EPOCH":"2026-03-09T13:09:38.394720","MEAN_MOTION":15.06461805,"ECCENTRICITY":0.0159394,"INCLINATION":120.4656,"RA_OF_ASC_NODE":280.3913,"ARG_OF_PERICENTER":252.2911,"MEAN_ANOMALY":106.0698,"EPHEMERIS_TYPE":0,"CLASSIFICATION_TYPE":"U","NORAD_CAT_ID":39471,"ELEMENT_SET_NO":999,"REV_AT_EPOCH":10021,"BSTAR":0.00057825,"MEAN_MOTION_DOT":0.0001114,"MEAN_MOTION_DDOT":0}]
